      2.10          N: GNSS NAV DATA                        RINEX VERSION / TYPE
fic2rin                                 06/01/2024 00:59:01 PGM / RUN BY / DATE
                                                            END OF HEADER
22 24  5 31  9 59 44.0 -.210520811379D-04 -.511590769747D-11  .000000000000D+00
     .300000000000D+01  .554375000000D+02  .494092009487D-08  .101826904302D+01
     .263750553131D-05  .142735691043D-01  .665150582790D-05  .515369986916D+04
     .467984000000D+06 -.130385160446D-07  .150981308863D-01 -.329688191414D-06
     .961541933864D+00  .252937500000D+03 -.113491476925D+01 -.837534886690D-08
     .148577617426D-09  .100000000000D+01  .231600000000D+04  .000000000000D+00
     .240000000000D+01  .000000000000D+00 -.111758708954D-07  .300000000000D+01
     .460800000000D+06  .400000000000D+01
2  24  5 31 10  0  0.0 -.426399987191D-03  .693489710102D-11  .000000000000D+00
     .150000000000D+02  .237500000000D+01  .419410327266D-08  .728727029880D+00
    -.152736902237D-06  .159750779858D-01  .106152147055D-04  .515370421600D+04
     .468000000000D+06 -.633299350739D-07  .193568122062D+01 -.262632966042D-06
     .967205031652D+00  .183781250000D+03 -.118208986599D+01 -.821248494010D-08
    -.229652423088D-09  .100000000000D+01  .231600000000D+04  .000000000000D+00
     .240000000000D+01  .000000000000D+00 -.176951289177D-07  .150000000000D+02
     .460800000000D+06  .400000000000D+01
5  24  5 31 10  0  0.0 -.174649525434D-03 -.136424205266D-11  .000000000000D+00
     .480000000000D+02  .192187500000D+02  .430696511667D-08  .865614072483D+00
     .105239450932D-05  .587962567806D-02  .614486634731D-05  .515362170792D+04
     .468000000000D+06 -.763684511185D-07  .301896016333D+01 -.242143869400D-07
     .971718957549D+00  .270281250000D+03  .125627608026D+01 -.821641367518D-08
     .257153568621D-09  .100000000000D+01  .231600000000D+04  .000000000000D+00
     .240000000000D+01  .000000000000D+00 -.107102096081D-07  .480000000000D+02
     .460800000000D+06  .400000000000D+01
6  24  5 31 10  0  0.0  .244420021772D-03 -.204636307899D-10  .000000000000D+00
     .710000000000D+02  .178125000000D+01  .367729603128D-08 -.148098121887D+01
     .152736902237D-06  .296835543122D-02  .984035432339D-05  .515362975311D+04
     .468000000000D+06 -.242143869400D-07  .203409834683D+01  .447034835815D-07
     .989600661663D+00  .207250000000D+03 -.689970843827D+00 -.771567853184D-08
    -.296440919383D-10  .100000000000D+01  .231600000000D+04  .000000000000D+00
     .240000000000D+01  .000000000000D+00  .372529029846D-08  .710000000000D+02
     .460800000000D+06  .400000000000D+01
3  24  5 31 10  0  0.0  .390707049519D-03  .185309545486D-10  .000000000000D+00
     .620000000000D+02  .173437500000D+02  .400373820034D-08 -.280690787048D+01
     .925734639168D-06  .553610688075D-02  .586174428463D-05  .515371804237D+04
     .468000000000D+06 -.149011611938D-07  .307033400465D+01 -.596046447754D-07
     .984772575571D+00  .279062500000D+03  .109070773727D+01 -.790211486909D-08
     .373944147703D-09  .100000000000D+01  .231600000000D+04  .000000000000D+00
     .240000000000D+01  .000000000000D+00  .139698386192D-08  .620000000000D+02
     .460800000000D+06  .400000000000D+01
4  24  5 31 10  0  0.0  .373022630811D-03  .829913915368D-11  .000000000000D+00
     .104000000000D+03 -.790937500000D+02  .459590572364D-08  .165247700601D+00
    -.402331352234D-05  .284537312109D-02  .695884227753D-05  .515374195099D+04
     .468000000000D+06  .968575477600D-07 -.213462782727D+01  .353902578354D-07
     .964788119823D+00  .247750000000D+03 -.294757978644D+01 -.824462913618D-08
    -.753602819154D-10  .100000000000D+01  .231600000000D+04  .000000000000D+00
     .240000000000D+01  .000000000000D+00 -.465661287308D-08  .872000000000D+03
     .460800000000D+06  .400000000000D+01
7  24  5 31 10  0  0.0 -.108020845801D-03  .142108547152D-10  .000000000000D+00
     .360000000000D+02 -.173125000000D+02  .463019286612D-08 -.235250858471D+01
    -.113807618618D-05  .185719231376D-01  .115279108286D-04  .515364265823D+04
     .468000000000D+06  .311061739922D-06 -.112153311233D+01 -.372529029846D-07
     .950019341536D+00  .144343750000D+03 -.212013258248D+01 -.780389649218D-08
     .305369862738D-09  .100000000000D+01  .231600000000D+04  .000000000000D+00
     .240000000000D+01  .630000000000D+02 -.111758708954D-07  .360000000000D+02
     .460800000000D+06  .400000000000D+01
31 24  5 31 10  0  0.0 -.227624084800D-03  .227373675443D-12  .000000000000D+00
     .240000000000D+02 -.375000000000D+00  .461054919074D-08  .304575534391D+01
    -.115483999252D-06  .104675289476D-01  .122096389532D-04  .515373617744D+04
     .468000000000D+06 -.689178705215D-07 -.110001374977D+01 -.119209289551D-06
     .954004968216D+00  .140281250000D+03  .678485567613D+00 -.781889711702D-08
     .159292349451D-09  .100000000000D+01  .231600000000D+04  .000000000000D+00
     .240000000000D+01  .000000000000D+00 -.135041773319D-07  .240000000000D+02
     .460800000000D+06  .400000000000D+01
23 24  5 31 10  0  0.0  .238842330873D-03  .932232069317D-11  .000000000000D+00
     .130000000000D+02  .188437500000D+02  .409159900295D-08 -.266368009912D+01
     .106729567051D-05  .418526085559D-02  .568665564060D-05  .515371333504D+04
     .468000000000D+06  .316649675369D-07  .303877814339D+01  .745058059692D-08
     .979569815678D+00  .281625000000D+03 -.296790827956D+01 -.797640367780D-08
     .390373403476D-09  .100000000000D+01  .231600000000D+04  .000000000000D+00
     .240000000000D+01  .000000000000D+00 -.838190317154D-08  .130000000000D+02
     .460800000000D+06  .400000000000D+01
21 24  5 31 10  0  0.0  .118370167911D-03 -.227373675443D-11  .000000000000D+00
     .280000000000D+02  .462500000000D+01  .446161441558D-08  .353483881691D+00
    -.152736902237D-06  .251628545811D-01  .100266188383D-04  .515368841743D+04
     .468000000000D+06  .240281224251D-06  .192846568587D+01 -.316649675369D-06
     .961468100388D+00  .188937500000D+03 -.567189173957D+00 -.846285251178D-08
    -.204651381694D-09  .100000000000D+01  .231600000000D+04  .000000000000D+00
     .240000000000D+01  .000000000000D+00 -.102445483208D-07  .280000000000D+02
     .460800000000D+06  .400000000000D+01
17 24  5 31 10  0  0.0  .700784847140D-03 -.454747350886D-11  .000000000000D+00
     .380000000000D+02 -.190000000000D+02  .458233372974D-08  .499916245324D+00
    -.107474625111D-05  .134001141414D-01  .676326453686D-05  .515373394203D+04
     .468000000000D+06 -.949949026108D-07  .103275025696D+01 -.178813934326D-06
     .968864377205D+00  .259625000000D+03 -.132027765928D+01 -.842570810742D-08
    -.513235664040D-09  .100000000000D+01  .231600000000D+04  .000000000000D+00
     .240000000000D+01  .000000000000D+00 -.111758708954D-07  .380000000000D+02
     .460800000000D+06  .400000000000D+01
12 24  5 31 10  0  0.0 -.510071404278D-03 -.329691829393D-11  .000000000000D+00
     .137000000000D+03  .616875000000D+02  .483948729836D-08 -.308582037205D+01
     .331364572048D-05  .877636403311D-02  .619888305664D-05  .515364516258D+04
     .468000000000D+06  .247731804848D-06 -.605087202025D-02 -.391155481339D-07
     .962739636599D+00  .258437500000D+03  .145096769751D+01 -.816891169653D-08
     .115719105880D-09  .100000000000D+01  .231600000000D+04  .000000000000D+00
     .240000000000D+01  .000000000000D+00 -.125728547573D-07  .137000000000D+03
     .460800000000D+06  .400000000000D+01
10 24  5 31 10  0  0.0 -.331588089466D-04 -.750333128963D-11  .000000000000D+00
     .105000000000D+03  .183125000000D+02  .402945355720D-08  .247793780422D+01
     .970438122749D-06  .933280773461D-02  .544078648090D-05  .515368455315D+04
     .468000000000D+06  .409781932831D-07  .306776661999D+01 -.201165676117D-06
     .984434160194D+00  .286750000000D+03 -.237227095778D+01 -.790854370830D-08
     .373586989969D-09  .100000000000D+01  .231600000000D+04  .000000000000D+00
     .240000000000D+01  .000000000000D+00  .232830643654D-08  .105000000000D+03
     .460800000000D+06  .400000000000D+01
8  24  5 31 10  0  0.0  .206504017115D-03  .190993887372D-10  .000000000000D+00
     .760000000000D+02 -.130312500000D+02  .501235164171D-08  .496468249815D+00
    -.538304448128D-06  .946182885673D-02  .596791505814D-05  .515363307571D+04
     .468000000000D+06  .949949026108D-07  .937945628469D+00  .143423676491D-06
     .953150855199D+00  .255406250000D+03  .363874387549D+00 -.851571185644D-08
    -.537522389965D-09  .100000000000D+01  .231600000000D+04  .000000000000D+00
     .240000000000D+01  .000000000000D+00  .465661287308D-08  .760000000000D+02
     .460800000000D+06  .400000000000D+01
27 24  5 31 10  0  0.0 -.263969413936D-04 -.159161572810D-11  .000000000000D+00
     .830000000000D+02 -.990625000000D+01  .479234247744D-08  .563717514286D+00
    -.294297933578D-06  .125468596816D-01  .657886266708D-05  .515367752075D+04
     .468000000000D+06 -.670552253723D-07  .964452122651D+00  .162050127983D-06
     .962144167498D+00  .251875000000D+03  .794472919272D+00 -.845606651483D-08
    -.577166898461D-09  .100000000000D+01  .231600000000D+04  .000000000000D+00
     .340000000000D+01  .000000000000D+00  .186264514923D-08  .830000000000D+02
     .460800000000D+06  .400000000000D+01
24 24  5 31 10  0  0.0 -.474244356155D-03 -.295585778076D-11  .000000000000D+00
     .105000000000D+03 -.111875000000D+02  .515378610445D-08 -.133875105962D+01
    -.428408384323D-06  .153033680981D-01  .104084610939D-04  .515371510506D+04
     .468000000000D+06  .344589352608D-06 -.121866529908D+01  .184401869774D-06
     .933670559058D+00  .161562500000D+03  .979527550511D+00 -.822819988041D-08
     .739316509786D-10  .100000000000D+01  .231600000000D+04  .000000000000D+00
     .240000000000D+01  .000000000000D+00  .232830643654D-08  .105000000000D+03
     .460800000000D+06  .400000000000D+01
